STARLINK-32637          
1 62032U 24216A   26068.51608057  .00029120  00000+0  10629-2 0  9995
2 62032  42.9983 256.9137 0000967 222.7896 137.2880 15.27599792 73859
COSMOS 2588             
1 64095U 25109A   26068.81179522  .00009169  00000+0  32611-3 0  9998
2 64095  72.9704  73.5401 0005019 308.6780  51.3966 15.29122656 44425
